{"restaurants":[{"name":"Le Prieuré","road":"r. de la Mairie","zipcode":"42820","city":"Ambierle","address":"r. de la Mairie 42820 Ambierle","chef":"Thierry Fernandes","url":"https://restaurant.michelin.fr/28od0rp/le-prieure-ambierle","AddrOnLafourch":"https://www.lafourchette.com/restaurant/le-prieure/b7cee5ce-c014-4c9b-8656-e8517b9d0b88"},{"name":"Christopher Coutanceau","road":"Promenade de la Concurrence","zipcode":"17000","city":"La Rochelle","address":"Promenade de la Concurrence 17000 La Rochelle","chef":"CHRISTOPHER COUTANCEAU","url":"https://restaurant.michelin.fr/2apfrj5/christopher-coutanceau-la-rochelle","AddrOnLafourch":"https://www.lafourchette.com/restaurant/christopher-coutanceau/2998"},{"name":"Pertinence","road":"29 r. de l'Exposition","zipcode":"75007","city":"Paris","address":"29 r. de l'Exposition 75007 Paris","chef":"Kwen Liew et Ryunosuke Naito","url":"https://restaurant.michelin.fr/5sermc3/pertinence-paris-07","AddrOnLafourch":"https://www.lafourchette.com/restaurant/pertinence/317587"},{"name":"L'Odas","road":"4 Passage Maurice Lenfant","zipcode":"76000","city":"Rouen","address":"4 Passage Maurice Lenfant 76000 Rouen","chef":"Olivier Da Silva","url":"https://restaurant.michelin.fr/33tyod0j/lodas-rouen","AddrOnLafourch":"https://www.lafourchette.com/restaurant/l-odas/212971"},{"name":"L'Atelier du Peintre","road":"1 Rue Schongauer","zipcode":"68000","city":"Colmar","address":"1 Rue Schongauer 68000 Colmar","chef":"Loïc Lefebvre","url":"https://restaurant.michelin.fr/2ewn3lj/latelier-du-peintre-colmar","AddrOnLafourch":"https://www.lafourchette.com/restaurant/atelier-du-peintre/6437"},{"name":"Pic","road":"285 avenue Victor Hugo","zipcode":"26000","city":"Valence","address":"285 avenue Victor Hugo 26000 Valence","chef":"Anne-Sophie Pic","url":"https://restaurant.michelin.fr/2d0hddd/pic-valence","AddrOnLafourch":"https://www.lafourchette.com/restaurant/anne-sophie-pic-valence/205425"},{"name":"Fontevraud Le Restaurant","road":"38 rue St-Jean-de-l'Habit","zipcode":"49590","city":"FONTEVRAUD-L'ABBAYE","address":"38 rue St-Jean-de-l'Habit 49590 FONTEVRAUD-L'ABBAYE","chef":"Thibaut Ruggeri","url":"https://restaurant.michelin.fr/9pbvgq6a/fontevraud-le-restaurant-fontevraud-labbaye","AddrOnLafourch":"https://www.lafourchette.com/restaurant/fontevraud-le-restaurant/63173"},{"name":"Restaurant H","road":"13 r. Jean-Beausire","zipcode":"75004","city":"Paris","address":"13 r. Jean-Beausire 75004 Paris","chef":"Hubert Duchenne","url":"https://restaurant.michelin.fr/2851556/restaurant-h-paris-04","AddrOnLafourch":"https://www.lafourchette.com/restaurant/restaurant-h/209577"},{"name":"Jérémy Galvan","road":"Rue du Boeuf","zipcode":"69005","city":"Lyon 05","address":"Rue du Boeuf 69005 Lyon 05","chef":"","url":"https://restaurant.michelin.fr/3plxd2e/jeremy-galvan-lyon-05","AddrOnLafourch":"https://www.lafourchette.com/restaurant/jeremy-galvan-restaurant/21095"},{"name":"La Table des Merville","road":"3 place Richard","zipcode":"31320","city":"Castanet-Tolosan","address":"3 place Richard 31320 Castanet-Tolosan","chef":"Thierry Merville","url":"https://restaurant.michelin.fr/2b3ktxc/la-table-des-merville-castanet-tolosan","AddrOnLafourch":"https://www.lafourchette.com/restaurant/la-table-des-merville-thierry-merville/2591"},{"name":"Umami","road":"8 r. des Dentelles","zipcode":"67000","city":"Strasbourg","address":"8 r. des Dentelles 67000 Strasbourg","chef":"René Fieger","url":"https://restaurant.michelin.fr/2ei9xex/umami-strasbourg","AddrOnLafourch":"https://www.lafourchette.com/restaurant/restaurant-umami/299b43e3-baf9-4910-bf89-f87d3a325cf9"},{"name":"Le Meurice Alain Ducasse","road":"228 Rue de Rivoli","zipcode":"75001","city":"Paris","address":"228 Rue de Rivoli 75001 Paris","chef":"Alain Ducasse et Jocelyn Herland","url":"https://restaurant.michelin.fr/2a7d9c1/le-meurice-alain-ducasse-paris-01","AddrOnLafourch":"https://www.lafourchette.com/restaurant/restaurant-le-meurice-alain-ducasse/275"},{"name":"La Bonne Étape","road":"chemin du lac","zipcode":"04160","city":"Château-Arnoux","address":"chemin du lac 04160 Château-Arnoux","chef":"Jany Gleize","url":"https://restaurant.michelin.fr/2bp5jf6/la-bonne-etape-chateau-arnoux","AddrOnLafourch":"https://www.lafourchette.com/restaurant/la-bonne-etape/953"},{"name":"Quinsou","road":"33 r. de l'Abbé-Grégoire","zipcode":"75006","city":"Paris","address":"33 r. de l'Abbé-Grégoire 75006 Paris","chef":"Antonin Bonnet","url":"https://restaurant.michelin.fr/a22cmkwd/quinsou-paris-06","AddrOnLafourch":"https://www.lafourchette.com/restaurant/quinsou/317277"},{"name":"Maison Kieny","road":"7 Rue du Général de Gaulle","zipcode":"68400","city":"Riedisheim","address":"7 Rue du Général de Gaulle 68400 Riedisheim","chef":"Jean-Marc KIENY","url":"https://restaurant.michelin.fr/2a22p1u/maison-kieny-riedisheim","AddrOnLafourch":"https://www.lafourchette.com/restaurant/maison-kieny/2971"},{"name":"Flaveur","road":"25 Rue Gubernatis","zipcode":"06000","city":"Nice","address":"25 Rue Gubernatis 06000 Nice","chef":"Gaël et Mickaël Tourteaux","url":"https://restaurant.michelin.fr/2exgwy4/flaveur-nice","AddrOnLafourch":"https://www.lafourchette.com/restaurant/flaveur/38155"},{"name":"Henri et Joseph","road":"4 r. Léo-le-Bourgo","zipcode":"56100","city":"Lorient","address":"4 r. Léo-le-Bourgo 56100 Lorient","chef":"Philippe Le Lay","url":"https://restaurant.michelin.fr/2e29zv6/henri-et-joseph-lorient","AddrOnLafourch":"https://www.lafourchette.com/restaurant/henri-et-joseph/8838"},{"name":"Le Cinq","road":"31 av. George V","zipcode":"75008","city":"Paris 08","address":"31 av. George V 75008 Paris 08","chef":"Christian Le Squer","url":"https://restaurant.michelin.fr/2ab2thp/le-cinq-paris-08","AddrOnLafourch":"https://www.lafourchette.com/restaurant/le-cinq-four-seasons-hotel-george-v/29364"},{"name":"Paul Bocuse","road":"40 Rue de la Plage","zipcode":"69660","city":"Collonges-au-Mont-d'Or","address":"40 Rue de la Plage 69660 Collonges-au-Mont-d'Or","chef":"Paul BOCUSE","url":"https://restaurant.michelin.fr/29tbf1t/paul-bocuse-collonges-au-mont-dor","AddrOnLafourch":"https://www.lafourchette.com/restaurant/auberge-du-pont-de-collonges-paul-bocuse/5355"},{"name":"Takao Takano","road":"33 Rue Malesherbes","zipcode":"69006","city":"Lyon 06","address":"33 Rue Malesherbes 69006 Lyon 06","chef":"Takao Takano","url":"https://restaurant.michelin.fr/1fchzdq5/takao-takano-lyon-06","AddrOnLafourch":"https://www.lafourchette.com/restaurant/takao-takano/5b54bb42-099e-4e86-8bef-ff728683ae77"},{"name":"La Table","road":"32 Rue de la Barre","zipcode":"59000","city":"Lille","address":"32 Rue de la Barre 59000 Lille","chef":"Thibaut GAMBA","url":"https://restaurant.michelin.fr/ua271jkd/la-table-lille","AddrOnLafourch":"https://www.lafourchette.com/restaurant/la-table-du-siam/31348"},{"name":"Yoann Conte","road":"13 Vieille-Route-des-Pensières","zipcode":"74290","city":"Veyrier-du-Lac","address":"13 Vieille-Route-des-Pensières 74290 Veyrier-du-Lac","chef":"Yoann CONTE","url":"https://restaurant.michelin.fr/2fcm39b/yoann-conte-veyrier-du-lac","AddrOnLafourch":"https://www.lafourchette.com/restaurant/hotel-restaurant-yoann-conte-bord-du-lac/15264"},{"name":"Le Bec au Cauchois","road":"22 Rue André Fiquet","zipcode":"76540","city":"Valmont","address":"22 Rue André Fiquet 76540 Valmont","chef":"Pierre Caillet","url":"https://restaurant.michelin.fr/2b6gbtl/le-bec-au-cauchois-valmont","AddrOnLafourch":"https://www.lafourchette.com/restaurant/le-bec-au-cauchois-restaurant-pierre-caillet/3401"},{"name":"Le Pergolèse","road":"40, Rue Pergolèse","zipcode":"75016","city":"Paris","address":"40, Rue Pergolèse 75016 Paris","chef":"Stéphane Gaborieau","url":"https://restaurant.michelin.fr/2aeinde/le-pergolese-paris-16","AddrOnLafourch":"https://www.lafourchette.com/restaurant/le-pergolese-stephane-gaborieau/4727"},{"name":"JAN","road":"12 Rue Lascaris","zipcode":"06000","city":"Nice","address":"12 Rue Lascaris 06000 Nice","chef":"Jan Hendrik van der Westhuizen","url":"https://restaurant.michelin.fr/38z104i7/jan-nice","AddrOnLafourch":"https://www.lafourchette.com/restaurant/jan/39219"},{"name":"En Pleine Nature","road":"6 pl. de la Mairie","zipcode":"31130","city":"Fonsegrives","address":"6 pl. de la Mairie 31130 Fonsegrives","chef":"Sylvain Joffre","url":"https://restaurant.michelin.fr/s5y0mmq/en-pleine-nature-fonsegrives","AddrOnLafourch":"https://www.lafourchette.com/restaurant/en-pleine-nature/bcfa16a6-b64a-4f7e-a25b-86f02fd00aa4"},{"name":"Penati al Baretto","road":"9 rue Balzac","zipcode":"75008","city":"Paris 08","address":"9 rue Balzac 75008 Paris 08","chef":"Alberico Penati","url":"https://restaurant.michelin.fr/9oo4cel/penati-al-baretto-paris-08","AddrOnLafourch":"https://www.lafourchette.com/restaurant/penati-al-baretto-alberico-penati/36448"},{"name":"Le Chateaubriand","road":"129 av. Parmentier","zipcode":"75011","city":"Paris","address":"129 av. Parmentier 75011 Paris","chef":"Inaki Aizpitarte","url":"https://restaurant.michelin.fr/2e6jtym/le-chateaubriand-paris-11","AddrOnLafourch":"https://www.lafourchette.com/restaurant/le-chateaubriand/202436"},{"name":"Lasserre","road":"17 Avenue F. -D. -Roosevelt","zipcode":"75008","city":"Paris 08","address":"17 Avenue F. -D. -Roosevelt 75008 Paris 08","chef":"","url":"https://restaurant.michelin.fr/2abcqvg/lasserre-paris-08","AddrOnLafourch":"https://www.lafourchette.com/restaurant/lasserre/250"},{"name":"Au Vieux Couvent","road":"6 r. des Chanoines","zipcode":"67860","city":"Rhinau","address":"6 r. des Chanoines 67860 Rhinau","chef":"Alexis Albrecht","url":"https://restaurant.michelin.fr/2aogs9u/au-vieux-couvent-rhinau","AddrOnLafourch":"https://www.lafourchette.com/restaurant/au-vieux-couvent-alexis-albrecht/15068"},{"name":"Guy Lassausaie","road":"r. de Belle-Sise","zipcode":"69380","city":"Chasselay","address":"r. de Belle-Sise 69380 Chasselay","chef":"","url":"https://restaurant.michelin.fr/295zuzb/guy-lassausaie-chasselay","AddrOnLafourch":"https://www.lafourchette.com/restaurant/guy-lassausaie/61d3bd07-07bb-49b5-8018-af6d92afdb28"},{"name":"La Chèvre d'Or","road":"r. du Barri","zipcode":"06360","city":"Èze","address":"r. du Barri 06360 Èze","chef":"Arnaud Faye, Chef Exécutif et Julien Dugourd, Chef Pâtissier","url":"https://restaurant.michelin.fr/2bwkh5l/la-chevre-dor-eze","AddrOnLafourch":"https://www.lafourchette.com/restaurant/la-chevre-d-or/8b41d879-11f6-4a57-926e-101f60411f1c"},{"name":"Relais Louis XIII","road":"8 Rue des Grands Augustins","zipcode":"75006","city":"Paris","address":"8 Rue des Grands Augustins 75006 Paris","chef":"Manuel Martinez","url":"https://restaurant.michelin.fr/2a92anu/relais-louis-xiii-paris-06","AddrOnLafourch":"https://www.lafourchette.com/restaurant/le-relais-louis-xiii/37168985-5d69-4f0e-aa19-f37b305e5d2b"},{"name":"1912","road":"bd de la Cahotte","zipcode":"14360","city":"Trouville-sur-Mer","address":"bd de la Cahotte 14360 Trouville-sur-Mer","chef":"Le chef Johan THYRIOT","url":"https://restaurant.michelin.fr/cns0apa3/1912-trouville-sur-mer","AddrOnLafourch":"https://www.lafourchette.com/restaurant/1912/60777"},{"name":"Hostellerie Bérard","road":"Avenue Gabriel-Péri","zipcode":"83740","city":"LA-CADIERE-D'AZUR","address":"Avenue Gabriel-Péri 83740 LA-CADIERE-D'AZUR","chef":"Jean-François Bérard","url":"https://restaurant.michelin.fr/2bl33gu/hostellerie-berard-la-cadiere-dazur","AddrOnLafourch":"https://www.lafourchette.com/restaurant/hostellerie-berard-spa/416"},{"name":"Benoit","road":"20 Rue St-Martin","zipcode":"75004","city":"Paris 04","address":"20 Rue St-Martin 75004 Paris 04","chef":"Fabienne Eymard","url":"https://restaurant.michelin.fr/2a8isn4/benoit-paris-04","AddrOnLafourch":"https://www.lafourchette.com/restaurant/benoit-alain-ducasse/25896"},{"name":"La Merise","road":"7 r. d'Eschbach","zipcode":"67580","city":"Laubach","address":"7 r. d'Eschbach 67580 Laubach","chef":"Cédric Deckert","url":"https://restaurant.michelin.fr/3614676/la-merise-laubach","AddrOnLafourch":"https://www.lafourchette.com/restaurant/la-merise/fbac6f55-fc0a-4db9-a18a-4017c68181b8"},{"name":"L'Essentiel","road":"29 Rue Mirabeau","zipcode":"14800","city":"DEAUVILLE","address":"29 Rue Mirabeau 14800 DEAUVILLE","chef":"Mi-Ra et Charles Thuillant","url":"https://restaurant.michelin.fr/40jnqvq/lessentiel-deauville","AddrOnLafourch":"https://www.lafourchette.com/restaurant/l-essentiel/21632"},{"name":"Le Gourmet de Sèze","road":"125 Rue de Sèze","zipcode":"69006","city":"Lyon","address":"125 Rue de Sèze 69006 Lyon","chef":"Bernard Mariller","url":"https://restaurant.michelin.fr/29trkin/le-gourmet-de-seze-lyon-06","AddrOnLafourch":"https://www.lafourchette.com/restaurant/le-gourmet-de-seze-bernard-mariller/28558"},{"name":"Le Corot","road":"55 Rue de Versailles","zipcode":"92410","city":"VILLE-D'AVRAY","address":"55 Rue de Versailles 92410 VILLE-D'AVRAY","chef":"Rémi Chambard","url":"https://restaurant.michelin.fr/2aiulws5/le-corot-ville-davray","AddrOnLafourch":"https://www.lafourchette.com/restaurant/le-corot-hotel-les-etangs-de-corot/5623"},{"name":"Alcyone","road":"1 Place Daviel","zipcode":"13002","city":"MARSEILLE","address":"1 Place Daviel 13002 MARSEILLE","chef":"Lionel Levy","url":"https://restaurant.michelin.fr/3f9eksg5n/alcyone-marseille-02","AddrOnLafourch":"https://www.lafourchette.com/restaurant/alcyone/31008"},{"name":"Les Bories","road":"rte de l'Abbaye de Sénanque","zipcode":"84220","city":"Gordes","address":"rte de l'Abbaye de Sénanque 84220 Gordes","chef":"MIRER Gregory","url":"https://restaurant.michelin.fr/2byq8tg/les-bories-gordes","AddrOnLafourch":"https://www.lafourchette.com/restaurant/hotel-restaurant-les-bories/27598"},{"name":"Le Vieux Logis","road":"Le Bourg","zipcode":"24510","city":"Trémolat","address":"Le Bourg 24510 Trémolat","chef":"ARNOULD Vincent","url":"https://restaurant.michelin.fr/2cz3yz2/le-vieux-logis-tremolat","AddrOnLafourch":"https://www.lafourchette.com/restaurant/le-vieux-logis/6018"},{"name":"La Table","road":"32 Rue de la Barre","zipcode":"59000","city":"Lille","address":"32 Rue de la Barre 59000 Lille","chef":"Thibaut GAMBA","url":"https://restaurant.michelin.fr/ua271jkd/la-table-lille","AddrOnLafourch":"https://www.lafourchette.com/restaurant/la-table-clarance-hotel-lille/202e2883-6501-4a2b-8be4-8add8e003832"},{"name":"Auguste","road":"54 r. Bourgogne","zipcode":"75007","city":"Paris 07","address":"54 r. Bourgogne 75007 Paris 07","chef":"Gaël Orieux","url":"https://restaurant.michelin.fr/2dof8zp/auguste-paris-07","AddrOnLafourch":"https://www.lafourchette.com/restaurant/restaurant-auguste-gael-orieux/26201"},{"name":"Les Rosiers","road":"32 av. Beau Soleil","zipcode":"64200","city":"Biarritz","address":"32 av. Beau Soleil 64200 Biarritz","chef":"Andrée et Stéphane Rosier","url":"https://restaurant.michelin.fr/2epi2a4/les-rosiers-biarritz","AddrOnLafourch":"https://www.lafourchette.com/restaurant/les-rosiers/6710"},{"name":"La Maison dans le Parc","road":"3 r. Ste-Catherine","zipcode":"54000","city":"Nancy","address":"3 r. Ste-Catherine 54000 Nancy","chef":"Françoise Mutel","url":"https://restaurant.michelin.fr/2elnjes/la-maison-dans-le-parc-nancy","AddrOnLafourch":"https://www.lafourchette.com/restaurant/la-maison-dans-le-parc/4294"},{"name":"Divellec","road":"18 r. Fabert","zipcode":"75007","city":"Paris","address":"18 r. Fabert 75007 Paris","chef":"","url":"https://restaurant.michelin.fr/2852181/divellec-paris-07","AddrOnLafourch":"https://www.lafourchette.com/restaurant/divellec/272053"},{"name":"Auberge des Saints Pères","road":"212 av. de Nonneville","zipcode":"93600","city":"Aulnay-sous-Bois","address":"212 av. de Nonneville 93600 Aulnay-sous-Bois","chef":"Jean-Claude Cahagnet","url":"https://restaurant.michelin.fr/2aga7gz/auberge-des-saints-peres-aulnay-sous-bois","AddrOnLafourch":"https://www.lafourchette.com/restaurant/auberge-des-saints-peres/4546"},{"name":"Alliance","road":"5 Rue de Poissy","zipcode":"75005","city":"Paris","address":"5 Rue de Poissy 75005 Paris","chef":"Toshitaka Omiya","url":"https://restaurant.michelin.fr/t4cp5kaa/alliance-paris-05","AddrOnLafourch":"https://www.lafourchette.com/restaurant/alliance/77626"},{"name":"Sushi B","road":"5 r. Rameau","zipcode":"75002","city":"Paris","address":"5 r. Rameau 75002 Paris","chef":"","url":"https://restaurant.michelin.fr/2852091/sushi-b-paris-02","AddrOnLafourch":"https://www.lafourchette.com/restaurant/sushi-b-paris/203333"},{"name":"La Grand'Vigne","road":"chemin de Smith-Haut-Lafitte","zipcode":"33650","city":"Martillac","address":"chemin de Smith-Haut-Lafitte 33650 Martillac","chef":"Nicolas Masse","url":"https://restaurant.michelin.fr/28yhuxy/la-grandvigne-martillac","AddrOnLafourch":"https://www.lafourchette.com/restaurant/la-grand-vigne-hotel-les-sources-de-caudalie/5649"},{"name":"Le Petit Nice","road":"Anse de Maldormé - Corniche J. F. Kennedy","zipcode":"13007","city":"Marseille 07","address":"Anse de Maldormé - Corniche J. F. Kennedy 13007 Marseille 07","chef":"Gérald Passédat","url":"https://restaurant.michelin.fr/2c76rmd/le-petit-nice-marseille-07","AddrOnLafourch":"https://www.lafourchette.com/restaurant/le-petit-nice-passedat-gerald-passedat/9350"},{"name":"Qui plume la Lune","road":"50 r. Amelot","zipcode":"75011","city":"Paris 11","address":"50 r. Amelot 75011 Paris 11","chef":"Jacky Ribault","url":"https://restaurant.michelin.fr/jh83esx/qui-plume-la-lune-paris-11","AddrOnLafourch":"https://www.lafourchette.com/restaurant/qui-plume-la-lune-jacky-ribault/11295"},{"name":"Loiseau rive Gauche","road":"5 rue Bourgogne","zipcode":"75007","city":"Paris 07","address":"5 rue Bourgogne 75007 Paris 07","chef":"Maxime Laurenson","url":"https://restaurant.michelin.fr/2aaahmg/loiseau-rive-gauche-paris-07","AddrOnLafourch":"https://www.lafourchette.com/restaurant/loiseau-rive-gauche/25"},{"name":"Le Clair de la Plume","road":"Place du Mail","zipcode":"26230","city":"Grignan","address":"Place du Mail 26230 Grignan","chef":"Julien ALLANO, Chef de Cuisine","url":"https://restaurant.michelin.fr/2faahd5/le-clair-de-la-plume-grignan","AddrOnLafourch":"https://www.lafourchette.com/restaurant/le-clair-de-la-plume/18271"},{"name":"Auberge du Cheval Blanc","road":"4 Route de Wissembourg","zipcode":"67510","city":"Lembach","address":"4 Route de Wissembourg 67510 Lembach","chef":"Pascal Bastian","url":"https://restaurant.michelin.fr/29qf1y7/auberge-du-cheval-blanc-lembach","AddrOnLafourch":"https://www.lafourchette.com/restaurant/auberge-du-cheval-blanc/2310"},{"name":"Py-r","road":"19 descente de la Halle-aux-Poissons","zipcode":"31000","city":"Toulouse","address":"19 descente de la Halle-aux-Poissons 31000 Toulouse","chef":"Pierre Lambinon","url":"https://restaurant.michelin.fr/2fdyj14/py-r-toulouse","AddrOnLafourch":"https://www.lafourchette.com/restaurant/le-py-r/3ce11fcb-63a7-413c-b579-f6de9db225aa"},{"name":"Ze Kitchen Galerie","road":"4 r. des Grands-Augustins","zipcode":"75006","city":"Paris","address":"4 r. des Grands-Augustins 75006 Paris","chef":"William Ledeuil","url":"https://restaurant.michelin.fr/2a9xcsf/ze-kitchen-galerie-paris-06","AddrOnLafourch":"https://www.lafourchette.com/restaurant/ze-kitchen-galerie/269053"},{"name":"Les Hautes Roches","road":"86 quai de Loire","zipcode":"37210","city":"Rochecorbon","address":"86 quai de Loire 37210 Rochecorbon","chef":"Didier Edon","url":"https://restaurant.michelin.fr/2cyg6yb/les-hautes-roches-rochecorbon","AddrOnLafourch":"https://www.lafourchette.com/restaurant/les-hautes-roches/2819"},{"name":"Copenhague","road":"142 AVENUE DES CHAMPS ELYSEES","zipcode":"75008","city":"PARIS","address":"142 AVENUE DES CHAMPS ELYSEES 75008 PARIS","chef":"Andreas Møller","url":"https://restaurant.michelin.fr/2916876/copenhague-paris-08","AddrOnLafourch":"https://www.lafourchette.com/restaurant/copenhague/25985"},{"name":"L'Orangerie du Château","road":"1 Avenue du Docteur Jean Laigret","zipcode":"41000","city":"Blois","address":"1 Avenue du Docteur Jean Laigret 41000 Blois","chef":"Jean-Marc Molveaux","url":"https://restaurant.michelin.fr/28xeo4n/lorangerie-du-chateau-blois","AddrOnLafourch":"https://www.lafourchette.com/restaurant/l-orangerie-du-chateau/2728"},{"name":"Le Relais Bernard Loiseau","road":"2, rue d'Argentine","zipcode":"21210","city":"Saulieu","address":"2, rue d'Argentine 21210 Saulieu","chef":"Patrick Bertron","url":"https://restaurant.michelin.fr/2cur8yy/le-relais-bernard-loiseau-saulieu","AddrOnLafourch":"https://www.lafourchette.com/restaurant/le-relais-bernard-loiseau/3303"},{"name":"Haut Bonheur de la Table","road":"18 Grand-Place","zipcode":"59670","city":"Cassel","address":"18 Grand-Place 59670 Cassel","chef":"Eugène Hobraiche","url":"https://restaurant.michelin.fr/6274yuk/haut-bonheur-de-la-table-cassel","AddrOnLafourch":"https://www.lafourchette.com/restaurant/haut-bonheur-de-la-table/e4a5eaea-f48c-45f2-8a44-4a6fa01a3d8e"},{"name":"Château de Mirambeau","road":"1 Avenue des Comtes Duchatel","zipcode":"17150","city":"Mirambeau","address":"1 Avenue des Comtes Duchatel 17150 Mirambeau","chef":"","url":"https://restaurant.michelin.fr/2c914ee/chateau-de-mirambeau-mirambeau","AddrOnLafourch":"https://www.lafourchette.com/restaurant/chateau-de-mirambeau/5487"},{"name":"Initial","road":"24 Rue Saint-Manvieu","zipcode":"14000","city":"Caen","address":"24 Rue Saint-Manvieu 14000 Caen","chef":"Yohann Lemonnier","url":"https://restaurant.michelin.fr/sd2y8ik/initial-caen","AddrOnLafourch":"https://www.lafourchette.com/restaurant/initial/27058"},{"name":"Dominique Bouchet","road":"11 Rue Treilhard","zipcode":"75008","city":"Paris","address":"11 Rue Treilhard 75008 Paris","chef":"Dominique Bouchet","url":"https://restaurant.michelin.fr/2doe0bh/dominique-bouchet-paris-08","AddrOnLafourch":"https://www.lafourchette.com/restaurant/dominique-bouchet/310829"},{"name":"Mirazur","road":"30, Avenue Aristide Briand","zipcode":"06500","city":"Menton","address":"30, Avenue Aristide Briand 06500 Menton","chef":"Mauro Colagreco","url":"https://restaurant.michelin.fr/2d440f7/mirazur-menton","AddrOnLafourch":"https://www.lafourchette.com/restaurant/mirazur/ea0ef615-d977-4e7e-b4e8-a1de7fd4c42b"},{"name":"La Table de Nans","road":"corniche du Liouquet","zipcode":"13600","city":"La Ciotat","address":"corniche du Liouquet 13600 La Ciotat","chef":"Nans Gaillard","url":"https://restaurant.michelin.fr/akfvyg8/la-table-de-nans-la-ciotat","AddrOnLafourch":"https://www.lafourchette.com/restaurant/la-table-de-nans-auberge-le-revestel/23303"},{"name":"William Frachot","road":"5 rue Michelet","zipcode":"21000","city":"DIJON","address":"5 rue Michelet 21000 DIJON","chef":"William Frachot","url":"https://restaurant.michelin.fr/2buprmi/william-frachot-dijon","AddrOnLafourch":"https://www.lafourchette.com/restaurant/restaurant-william-frachot/3931"},{"name":"Le Chiberta","road":"3 Rue Arsène Houssaye","zipcode":"75008","city":"Paris 08","address":"3 Rue Arsène Houssaye 75008 Paris 08","chef":"Stéphane Laruelle","url":"https://restaurant.michelin.fr/2abl39j/le-chiberta-paris-08","AddrOnLafourch":"https://www.lafourchette.com/restaurant/le-chiberta-stephane-laruelle-guy-savoy/2828"},{"name":"Septime","road":"80 r. de Charonne","zipcode":"75011","city":"Paris","address":"80 r. de Charonne 75011 Paris","chef":"Bertrand Grébaut","url":"https://restaurant.michelin.fr/3xrgyvn/septime-paris-11","AddrOnLafourch":"https://www.lafourchette.com/restaurant/septime/10889"},{"name":"Auberge de la Diligence","road":"4 r. de la Libération","zipcode":"49440","city":"Loiré","address":"4 r. de la Libération 49440 Loiré","chef":"Michel Cudraz","url":"https://restaurant.michelin.fr/29ryt77/auberge-de-la-diligence-loire","AddrOnLafourch":"https://www.lafourchette.com/restaurant/l-auberge-de-la-diligence/6765"},{"name":"Thierry Drapeau","road":"La Chabotterie","zipcode":"85260","city":"Saint-Sulpice-le-Verdon","address":"La Chabotterie 85260 Saint-Sulpice-le-Verdon","chef":"THIERRY DRAPEAU","url":"https://restaurant.michelin.fr/2dnrb62/thierry-drapeau-saint-sulpice-le-verdon","AddrOnLafourch":"https://www.lafourchette.com/restaurant/restaurant-thierry-drapeau/68308"},{"name":"Une Île","road":"9 r. Max-Richard","zipcode":"49000","city":"Angers","address":"9 r. Max-Richard 49000 Angers","chef":"Gérard Bossé","url":"https://restaurant.michelin.fr/2erjwfi/une-ile-angers","AddrOnLafourch":"https://www.lafourchette.com/restaurant/une-ile/b335a609-c120-4cc5-9a06-d77ae331d60d"},{"name":"La Fourchette du Printemps","road":"30 r. du Printemps","zipcode":"75017","city":"Paris","address":"30 r. du Printemps 75017 Paris","chef":"Nicolas Mouton","url":"https://restaurant.michelin.fr/2f4nbgd/la-fourchette-du-printemps-paris-17","AddrOnLafourch":"https://www.lafourchette.com/restaurant/la-fourchette-du-printemps-nicolas-mouton/5020"},{"name":"Les Climats","road":"41 rue de Lille","zipcode":"75007","city":"Paris 07","address":"41 rue de Lille 75007 Paris 07","chef":"Julien Boscus","url":"https://restaurant.michelin.fr/3x7v6dz/les-climats-paris-07","AddrOnLafourch":"https://www.lafourchette.com/restaurant/les-climats/30315"},{"name":"JY'S","road":"17 r. de la Poissonnerie","zipcode":"68000","city":"Colmar","address":"17 r. de la Poissonnerie 68000 Colmar","chef":"Jean-Yves Schillinger","url":"https://restaurant.michelin.fr/298563e/jys-colmar","AddrOnLafourch":"https://www.lafourchette.com/restaurant/jy-s/5603"},{"name":"La Table de l'Alpaga","road":"66 Allée des Marmousets","zipcode":"74120","city":"Megève","address":"66 Allée des Marmousets 74120 Megève","chef":"Anthony Bisquerra","url":"https://restaurant.michelin.fr/9tlmhvt/la-table-de-lalpaga-megeve","AddrOnLafourch":"https://www.lafourchette.com/restaurant/la-table-de-l-alpaga/291883"},{"name":"La Fourchette des Ducs","road":"6 r. de la Gare","zipcode":"67210","city":"Obernai","address":"6 r. de la Gare 67210 Obernai","chef":"Nicolas Stamm","url":"https://restaurant.michelin.fr/2a5ztne/la-fourchette-des-ducs-obernai","AddrOnLafourch":"https://www.lafourchette.com/restaurant/la-fourchette-des-ducs/c1d40cca-8b58-4335-8ed1-189b971ae1ab"},{"name":"La Grignotière","road":"6 Rue Jean Jaures","zipcode":"59590","city":"Raismes","address":"6 Rue Jean Jaures 59590 Raismes","chef":"Pascal Coulon","url":"https://restaurant.michelin.fr/3tkmico/la-grignotiere-raismes","AddrOnLafourch":"https://www.lafourchette.com/restaurant/la-grignotiere/43399"},{"name":"L'Écrin","road":"10 place de la Concorde","zipcode":"75008","city":"Paris","address":"10 place de la Concorde 75008 Paris","chef":"Christopher Hache","url":"https://restaurant.michelin.fr/3503291/lecrin-paris-08","AddrOnLafourch":"https://www.lafourchette.com/restaurant/l-ecrin/326081"},{"name":"Auberge de la Brie","road":"14 av. Alphonse Boulingre","zipcode":"77860","city":"Couilly-Pont-aux-Dames","address":"14 av. Alphonse Boulingre 77860 Couilly-Pont-aux-Dames","chef":"Alain Pavard","url":"https://restaurant.michelin.fr/29ask7o/auberge-de-la-brie-couilly-pont-aux-dames","AddrOnLafourch":"https://www.lafourchette.com/restaurant/l-auberge-de-la-brie/7601766f-f887-472a-9eae-8c4d68edc9dc"},{"name":"Le Cerf","road":"30 r. du Gén.-de-Gaulle","zipcode":"67520","city":"Marlenheim","address":"30 r. du Gén.-de-Gaulle 67520 Marlenheim","chef":"Michel Husser et Joël Philipps","url":"https://restaurant.michelin.fr/2c74pw3/le-cerf-marlenheim","AddrOnLafourch":"https://www.lafourchette.com/restaurant/hotel-restaurant-le-cerf-michel-husser/12601"},{"name":"La Matelote","road":"80 Boulevard Ste Beuve","zipcode":"62200","city":"BOULOGNE-SUR-MER","address":"80 Boulevard Ste Beuve 62200 BOULOGNE-SUR-MER","chef":"Tony Lestienne","url":"https://restaurant.michelin.fr/28yvb9u/la-matelote-boulogne-sur-mer","AddrOnLafourch":"https://www.lafourchette.com/restaurant/hotel-restaurant-la-matelote/35192"},{"name":"Cobéa","road":"11 r. Raymond Losserand","zipcode":"75014","city":"Paris 14","address":"11 r. Raymond Losserand 75014 Paris 14","chef":"Philippe Bélissent","url":"https://restaurant.michelin.fr/2adr3mu/cobea-paris-14","AddrOnLafourch":"https://www.lafourchette.com/restaurant/cobea-philippe-belissent/15802"},{"name":"Hélène Darroze","road":"4 rue d'Assas","zipcode":"75006","city":"Paris 06","address":"4 rue d'Assas 75006 Paris 06","chef":"Hélène Darroze","url":"https://restaurant.michelin.fr/2a93ort/helene-darroze-paris-06","AddrOnLafourch":"https://www.lafourchette.com/restaurant/la-salle-a-manger-helene-darroze/191"},{"name":"Neige d'Été","road":"12 Rue de l'Amiral Roussin","zipcode":"75015","city":"Paris 15","address":"12 Rue de l'Amiral Roussin 75015 Paris 15","chef":"Hideki Nishi","url":"https://restaurant.michelin.fr/9fkib5i9/neige-dete-paris-15","AddrOnLafourch":"https://www.lafourchette.com/restaurant/neige-d-ete/46721"},{"name":"Brikéténia","road":"142 r. de l'Église","zipcode":"64210","city":"Guéthary","address":"142 r. de l'Église 64210 Guéthary","chef":"Martin et David Ibarboure","url":"https://restaurant.michelin.fr/2es4wcd/briketenia-guethary","AddrOnLafourch":"https://www.lafourchette.com/restaurant/briketenia/11743"},{"name":"La Vague d'Or","road":"Plage de Bouillabaisse","zipcode":"83990","city":"Saint-Tropez","address":"Plage de Bouillabaisse 83990 Saint-Tropez","chef":"Arnaud Donckele","url":"https://restaurant.michelin.fr/2csqkr7/la-vague-dor-saint-tropez","AddrOnLafourch":"https://www.lafourchette.com/restaurant/la-vague-d-or/26660"},{"name":"Maison Clovis","road":"19 bd Brotteaux","zipcode":"69006","city":"Lyon","address":"19 bd Brotteaux 69006 Lyon","chef":"Clovis Khoury","url":"https://restaurant.michelin.fr/2eqhwui/maison-clovis-lyon-06","AddrOnLafourch":"https://www.lafourchette.com/restaurant/maison-clovis/324443"},{"name":"Buerehiesel","road":"dans le parc de l'Orangerie","zipcode":"67000","city":"Strasbourg","address":"dans le parc de l'Orangerie 67000 Strasbourg","chef":"Eric Westermann","url":"https://restaurant.michelin.fr/2b0sgrs/buerehiesel-strasbourg","AddrOnLafourch":"https://www.lafourchette.com/restaurant/buerehiesel-eric-westermann/3592"},{"name":"Les Loges","road":"6 r. du Boeuf","zipcode":"69005","city":"Lyon 05","address":"6 r. du Boeuf 69005 Lyon 05","chef":"Anthony Bonnet","url":"https://restaurant.michelin.fr/29t3z0x/les-loges-lyon-05","AddrOnLafourch":"https://www.lafourchette.com/restaurant/les-loges-anthony-bonnet/15418"},{"name":"Le 39V","road":"39 Avenue George V","zipcode":"75008","city":"Paris 08","address":"39 Avenue George V 75008 Paris 08","chef":"Frédéric Vardon","url":"https://restaurant.michelin.fr/2fd19do/le-39v-paris-08","AddrOnLafourch":"https://www.lafourchette.com/restaurant/le-39v-paris-frederic-vardon/26112"},{"name":"Le George","road":"31 Avenue George V","zipcode":"75008","city":"Paris","address":"31 Avenue George V 75008 Paris","chef":"Simone Zanoni ","url":"https://restaurant.michelin.fr/9q8vl0jf/le-george-paris-08","AddrOnLafourch":"https://www.lafourchette.com/restaurant/le-george-four-seasons-hotel-george-v/73961"},{"name":"Les Trois Dômes","road":"20 quai Gailleton","zipcode":"69002","city":"Lyon","address":"20 quai Gailleton 69002 Lyon","chef":"","url":"https://restaurant.michelin.fr/29svngf/les-trois-domes-lyon-02","AddrOnLafourch":"https://www.lafourchette.com/restaurant/les-trois-domes-christian-lherm/15413"},{"name":"La Table d'Eugène","road":"18 r. Eugène-Sue","zipcode":"75018","city":"Paris","address":"18 r. Eugène-Sue 75018 Paris","chef":"Geoffroy Maillard","url":"https://restaurant.michelin.fr/2et2alx/la-table-deugene-paris-18","AddrOnLafourch":"https://www.lafourchette.com/restaurant/la-table-d-eugene/36884"},{"name":"Villa René Lalique","road":"18 Rue Bellevue","zipcode":"67290","city":"Wingen-sur-Moder","address":"18 Rue Bellevue 67290 Wingen-sur-Moder","chef":"Jean-Georges Klein","url":"https://restaurant.michelin.fr/t645yf86/villa-rene-lalique-wingen-sur-moder","AddrOnLafourch":"https://www.lafourchette.com/restaurant/restaurant-villa-rene-lalique/298ff658-c3f3-46ac-8059-e3d05e447cd0"},{"name":"L'Abeille","road":"10 Avenue d'Iéna","zipcode":"75016","city":"Paris 16","address":"10 Avenue d'Iéna 75016 Paris 16","chef":"Christophe Moret","url":"https://restaurant.michelin.fr/2fcezsf/labeille-paris-16","AddrOnLafourch":"https://www.lafourchette.com/restaurant/l-abeille-shangri-la-hotel-paris/8976"},{"name":"Cyril Attrazic","road":"10 rte du Languedoc","zipcode":"48130","city":"Aumont-Aubrac","address":"10 rte du Languedoc 48130 Aumont-Aubrac","chef":"ATTRAZIC Cyril","url":"https://restaurant.michelin.fr/28rd58x/cyril-attrazic-aumont-aubrac","AddrOnLafourch":"https://www.lafourchette.com/restaurant/restaurant-cyril-attrazic-chez-camillou/26469"},{"name":"Helen","road":"3 r.Berryer","zipcode":"75008","city":"Paris","address":"3 r.Berryer 75008 Paris","chef":"Sébastien Carmona Porto","url":"https://restaurant.michelin.fr/3o59i9b/helen-paris-08","AddrOnLafourch":"https://www.lafourchette.com/restaurant/helen/23454"},{"name":"L'Orangerie","road":"31 Avenue George-V","zipcode":"75008","city":"Paris","address":"31 Avenue George-V 75008 Paris","chef":"David Bizet ","url":"https://restaurant.michelin.fr/2851286/lorangerie-paris-08","AddrOnLafourch":"https://www.lafourchette.com/restaurant/l-orangerie-four-seasons-hotel-george-v/213819"},{"name":"Les Jardins de l'Espadon","road":"15 place Vendôme","zipcode":"75001","city":"Paris","address":"15 place Vendôme 75001 Paris","chef":"Nicolas Sale","url":"https://restaurant.michelin.fr/2a7bw8d/les-jardins-de-lespadon-paris-01","AddrOnLafourch":"https://www.lafourchette.com/restaurant/les-jardins-de-l-espadon-ritz-paris/269931"},{"name":"La Rotonde","road":"200 avenue du Casino","zipcode":"69890","city":"LA-TOUR-DE-SALVAGNY","address":"200 avenue du Casino 69890 LA-TOUR-DE-SALVAGNY","chef":"Jean-François MALLE","url":"https://restaurant.michelin.fr/29uqy46/la-rotonde-la-tour-de-salvagny","AddrOnLafourch":"https://www.lafourchette.com/restaurant/la-rotonde-domaine-le-lyon-vert/73740"},{"name":"Le Chantecler","road":"37 Promenade des Anglais","zipcode":"06000","city":"NICE","address":"37 Promenade des Anglais 06000 NICE","chef":"Jean-Denis Rieubland","url":"https://restaurant.michelin.fr/2a4echf50/le-chantecler-nice","AddrOnLafourch":"https://www.lafourchette.com/restaurant/le-chantecler-hotel-negresco/301377"},{"name":"Terre-Mer","road":"16 r. du Jeu-de-Paume","zipcode":"56400","city":"Auray","address":"16 r. du Jeu-de-Paume 56400 Auray","chef":"Anthony Jéhanno","url":"https://restaurant.michelin.fr/2f8kr60/terre-mer-auray","AddrOnLafourch":"https://www.lafourchette.com/restaurant/terre-mer/7715"},{"name":"Le Prieuré","road":"7 pl. du Chapitre","zipcode":"30400","city":"Villeneuve-lès-Avignon","address":"7 pl. du Chapitre 30400 Villeneuve-lès-Avignon","chef":"","url":"https://restaurant.michelin.fr/2d2wqpd/le-prieure-villeneuve-les-avignon","AddrOnLafourch":"https://www.lafourchette.com/restaurant/le-prieure/689"},{"name":"L'Arôme","road":"3 rue St-Philippe-du-Roule","zipcode":"75008","city":"Paris 08","address":"3 rue St-Philippe-du-Roule 75008 Paris 08","chef":"BOULLAULT THOMAS","url":"https://restaurant.michelin.fr/2e8vcj7/larome-paris-08","AddrOnLafourch":"https://www.lafourchette.com/restaurant/l-arome/713"},{"name":"L'Olivier","road":"25 Route des Carles","zipcode":"83990","city":"Saint-Tropez","address":"25 Route des Carles 83990 Saint-Tropez","chef":"COLINET PHILIPPE","url":"https://restaurant.michelin.fr/2css2bw/lolivier-saint-tropez","AddrOnLafourch":"https://www.lafourchette.com/restaurant/la-bastide-de-saint-tropez-l-olivier/4034"},{"name":"La Table du Gourmet","road":"5 rue 1ère Armée","zipcode":"68340","city":"Riquewihr","address":"5 rue 1ère Armée 68340 Riquewihr","chef":"Jean-Luc Brendel","url":"https://restaurant.michelin.fr/2aosxv6/la-table-du-gourmet-riquewihr","AddrOnLafourch":"https://www.lafourchette.com/restaurant/la-table-du-gourmet/2975"},{"name":"Hostellerie de Plaisance","road":"5 place du Clocher","zipcode":"33330","city":"Saint-Emilion","address":"5 place du Clocher 33330 Saint-Emilion","chef":"Ronan Kervarrec","url":"https://restaurant.michelin.fr/2cp6y7n/hostellerie-de-plaisance-saint-emilion","AddrOnLafourch":"https://www.lafourchette.com/restaurant/hostellerie-de-plaisance/4904"},{"name":"Meurin","road":"Rue de Lillers","zipcode":"62350","city":"Busnes","address":"Rue de Lillers 62350 Busnes","chef":"Marc Meurin","url":"https://restaurant.michelin.fr/2dyfstx/meurin-busnes","AddrOnLafourch":"https://www.lafourchette.com/restaurant/le-meurin/77613"},{"name":"Auberge Tiegezh","road":"7 Place de la Gare","zipcode":"56380","city":"Guer","address":"7 Place de la Gare 56380 Guer","chef":"Baptiste Denieul","url":"https://restaurant.michelin.fr/34milgg2/auberge-tiegezh-guer","AddrOnLafourch":"https://www.lafourchette.com/restaurant/l-auberge-tiegezh/51875"},{"name":"L'Océan","road":"43 bd Thiers","zipcode":"64500","city":"Saint-Jean-de-Luz","address":"43 bd Thiers 64500 Saint-Jean-de-Luz","chef":"","url":"https://restaurant.michelin.fr/szxhgy9t/locean-saint-jean-de-luz","AddrOnLafourch":"https://www.lafourchette.com/restaurant/l-ocean-grand-hotel/205431"},{"name":"Palm Beach","road":"route des Iles Sanguinaires","zipcode":"20000","city":"Ajaccio","address":"route des Iles Sanguinaires 20000 Ajaccio","chef":"","url":"https://restaurant.michelin.fr/299lkwi1/palm-beach-ajaccio","AddrOnLafourch":"https://www.lafourchette.com/restaurant/palm-beach/5756"},{"name":"Comice","road":"31 av. de Versailles","zipcode":"75016","city":"Paris","address":"31 av. de Versailles 75016 Paris","chef":"Noam Gedalof","url":"https://restaurant.michelin.fr/3616836/comice-paris-16","AddrOnLafourch":"https://www.lafourchette.com/restaurant/comice/337449"},{"name":"Auberge du Vert Mont","road":"1318 r. du Mont-Noir","zipcode":"59299","city":"Boeschepe","address":"1318 r. du Mont-Noir 59299 Boeschepe","chef":"Florent Ladeyn","url":"https://restaurant.michelin.fr/13ppe4f4/auberge-du-vert-mont-boeschepe","AddrOnLafourch":"https://www.lafourchette.com/restaurant/l-auberge-du-vert-mont/31795"},{"name":"La Tour des Vents","road":"Le Moulin de Malfourat","zipcode":"24240","city":"Monbazillac","address":"Le Moulin de Malfourat 24240 Monbazillac","chef":"Damien Fagette","url":"https://restaurant.michelin.fr/28vws7k/la-tour-des-vents-monbazillac","AddrOnLafourch":"https://www.lafourchette.com/restaurant/la-tour-des-vents/75533"},{"name":"Étude","road":"14 r. Bouquet-de-Longchamp","zipcode":"75016","city":"Paris","address":"14 r. Bouquet-de-Longchamp 75016 Paris","chef":"Keisuke Yamagishi","url":"https://restaurant.michelin.fr/3g8qf775/etude-paris-16","AddrOnLafourch":"https://www.lafourchette.com/restaurant/etude/62495"},{"name":"Le Musigny","road":"90 Avenue de Liege","zipcode":"59300","city":"Valenciennes","address":"90 Avenue de Liege 59300 Valenciennes","chef":"Emmanuel Hernandez","url":"https://restaurant.michelin.fr/3yjthyc/le-musigny-valenciennes","AddrOnLafourch":"https://www.lafourchette.com/restaurant/le-musigny/32118"},{"name":"Château Cordeillan-Bages","road":"route des chateaux","zipcode":"33250","city":"Pauillac","address":"route des chateaux 33250 Pauillac","chef":"Julien Lefebvre","url":"https://restaurant.michelin.fr/2chq5p0/chateau-cordeillan-bages-pauillac","AddrOnLafourch":"https://www.lafourchette.com/restaurant/chateau-cordeillan-bages/366063"},{"name":"Astrance","road":"4 r. Beethoven","zipcode":"75016","city":"Paris","address":"4 r. Beethoven 75016 Paris","chef":"Pascal Barbot","url":"https://restaurant.michelin.fr/2aeq3md/astrance-paris-16","AddrOnLafourch":"https://www.lafourchette.com/restaurant/astrance/344379"},{"name":"1741","road":"22 Quai des Bateliers","zipcode":"67000","city":"Strasbourg","address":"22 Quai des Bateliers 67000 Strasbourg","chef":"Fabien Raux","url":"https://restaurant.michelin.fr/amv21i8/1741-strasbourg","AddrOnLafourch":"https://www.lafourchette.com/restaurant/le-1741/19211"},{"name":"Pages","road":"4 r. Auguste-Vacquerie","zipcode":"75016","city":"Paris","address":"4 r. Auguste-Vacquerie 75016 Paris","chef":"Ryuji Teshima","url":"https://restaurant.michelin.fr/9idrgh03/pages-paris-16","AddrOnLafourch":"https://www.lafourchette.com/restaurant/pages/65716"},{"name":"Jean Chauvel","road":"33 av. Général-Leclerc","zipcode":"92100","city":"Boulogne-Billancourt","address":"33 av. Général-Leclerc 92100 Boulogne-Billancourt","chef":"","url":"https://restaurant.michelin.fr/3614956/jean-chauvel-boulogne-billancourt","AddrOnLafourch":"https://www.lafourchette.com/restaurant/restaurant-jean-chauvel-brasserie-3b/3c92611a-3cf4-4c37-bdf7-bc7b89dce741"},{"name":"Carré des Feuillants","road":"14 rue de Castiglione","zipcode":"75001","city":"Paris 01","address":"14 rue de Castiglione 75001 Paris 01","chef":"Alain Dutournier","url":"https://restaurant.michelin.fr/2a7gjv9/carre-des-feuillants-paris-01","AddrOnLafourch":"https://www.lafourchette.com/restaurant/carre-des-feuillants-alain-dutournier/69372"},{"name":"Le Domaine de la Corniche","road":"5 rte de la Corniche","zipcode":"78270","city":"Rolleboise","address":"5 rte de la Corniche 78270 Rolleboise","chef":"Julien Razemon","url":"https://restaurant.michelin.fr/2cmxk0v/le-domaine-de-la-corniche-rolleboise","AddrOnLafourch":"https://www.lafourchette.com/restaurant/le-panoramique-du-domaine-de-la-corniche/6792"},{"name":"Le Jardin des Remparts","road":"10 rue Hôtel-Dieu","zipcode":"21200","city":"Beaune","address":"10 rue Hôtel-Dieu 21200 Beaune","chef":"Christophe Bocquillon","url":"https://restaurant.michelin.fr/28u6ql7/le-jardin-des-remparts-beaune","AddrOnLafourch":"https://www.lafourchette.com/restaurant/le-jardin-des-remparts/4988"},{"name":"Kasbür","road":"8 Rue de Dettwiller","zipcode":"67700","city":"Monswiller","address":"8 Rue de Dettwiller 67700 Monswiller","chef":"Yves Kieffer","url":"https://restaurant.michelin.fr/2az3rad/kasbur-monswiller","AddrOnLafourch":"https://www.lafourchette.com/restaurant/restaurant-kasbur/05fb705c-71af-4c28-a309-0a5f70bad18a"},{"name":"Mon Plaisir","road":"22 lieu-dit Journal","zipcode":"25190","city":"Chamesol","address":"22 lieu-dit Journal 25190 Chamesol","chef":"Christian Pilloud","url":"https://restaurant.michelin.fr/2d6m1yv/mon-plaisir-chamesol","AddrOnLafourch":"https://www.lafourchette.com/restaurant/mon-plaisir/7876"},{"name":"Domaine des Séquoias","road":"54 Vie-de-Boussieu","zipcode":"38300","city":"Ruy","address":"54 Vie-de-Boussieu 38300 Ruy","chef":"Eric Jambon","url":"https://restaurant.michelin.fr/28zo6i3/domaine-des-sequoias-ruy","AddrOnLafourch":"https://www.lafourchette.com/restaurant/domaine-des-sequoias/1009"},{"name":"L'Archeste","road":"79 rue de la Tour","zipcode":"75116","city":"Paris","address":"79 rue de la Tour 75116 Paris","chef":"Yoshiaki Ito","url":"https://restaurant.michelin.fr/2852206/larcheste-paris-16","AddrOnLafourch":"https://www.lafourchette.com/restaurant/l-archeste/284489"},{"name":"L'Épuisette","road":"158 Vallon-des-Auffes","zipcode":"13007","city":"Marseille","address":"158 Vallon-des-Auffes 13007 Marseille","chef":"Guillaume SOURRIEU","url":"https://restaurant.michelin.fr/29w1hx9/lepuisette-marseille-07","AddrOnLafourch":"https://www.lafourchette.com/restaurant/l-epuisette/4a0a2ea9-21f5-4be5-8dbd-5936d62b9591"},{"name":"Assiette Champenoise","road":"40 av. Paul Vaillant-Couturier","zipcode":"51430","city":"Tinqueux","address":"40 av. Paul Vaillant-Couturier 51430 Tinqueux","chef":"Arnaud Lallement","url":"https://restaurant.michelin.fr/2cliodi/assiette-champenoise-tinqueux","AddrOnLafourch":"https://www.lafourchette.com/restaurant/l-assiette-champenoise/3806"},{"name":"Manoir de la Boulaie","road":"33 rue Chapelle St-Martin","zipcode":"44115","city":"HAUTE-GOULAINE","address":"33 rue Chapelle St-Martin 44115 HAUTE-GOULAINE","chef":"Laurent Saudeau","url":"https://restaurant.michelin.fr/2a3ey4n/manoir-de-la-boulaie-haute-goulaine","AddrOnLafourch":"https://www.lafourchette.com/restaurant/manoir-de-la-boulaie-laurent-saudeau/3485"},{"name":"Jin","road":"6 Rue de la Sourdière","zipcode":"75001","city":"Paris","address":"6 Rue de la Sourdière 75001 Paris","chef":"Taku","url":"https://restaurant.michelin.fr/1t2b08px/jin-paris-01","AddrOnLafourch":"https://www.lafourchette.com/restaurant/jin/30379"},{"name":"SEPT","road":"7 pl. St-Sernin","zipcode":"31000","city":"Toulouse","address":"7 pl. St-Sernin 31000 Toulouse","chef":"Guillaume Momboisse","url":"https://restaurant.michelin.fr/2b38wht/sept-toulouse","AddrOnLafourch":"https://www.lafourchette.com/restaurant/sept/347931"},{"name":"Les Terrasses de Lyon","road":"25, montée Saint BArthelémy","zipcode":"69005","city":"Lyon 05","address":"25, montée Saint BArthelémy 69005 Lyon 05","chef":"David Delsart","url":"https://restaurant.michelin.fr/29t2ib7/les-terrasses-de-lyon-lyon-05","AddrOnLafourch":"https://www.lafourchette.com/restaurant/les-terrasses-de-lyon/4697"},{"name":"La Côte Saint-Jacques","road":"14 faubourg de Paris","zipcode":"89300","city":"Joigny","address":"14 faubourg de Paris 89300 Joigny","chef":"Jean-Michel Lorain","url":"https://restaurant.michelin.fr/2c2ma30/la-cote-saint-jacques-joigny","AddrOnLafourch":"https://www.lafourchette.com/restaurant/la-cote-saint-jacques/12792"},{"name":"Le Mascaret","road":"1 r. de Bas","zipcode":"50560","city":"Blainville-sur-Mer","address":"1 r. de Bas 50560 Blainville-sur-Mer","chef":"Philippe Hardy","url":"https://restaurant.michelin.fr/2edzchf/le-mascaret-blainville-sur-mer","AddrOnLafourch":"https://www.lafourchette.com/restaurant/le-mascaret/387"},{"name":"Garopapilles","road":"62 r. Abbé-de-L'Epée","zipcode":"33000","city":"Bordeaux","address":"62 r. Abbé-de-L'Epée 33000 Bordeaux","chef":"Tanguy Laviale","url":"https://restaurant.michelin.fr/3wsi04j3/garopapilles-bordeaux","AddrOnLafourch":"https://www.lafourchette.com/restaurant/garopapilles/276775"},{"name":"La Promenade","road":"2 promenade Jean-Jaurès","zipcode":"31590","city":"Verfeil","address":"2 promenade Jean-Jaurès 31590 Verfeil","chef":"Nicolas Thomas","url":"https://restaurant.michelin.fr/n3jledr/la-promenade-verfeil","AddrOnLafourch":"https://www.lafourchette.com/restaurant/la-promenade/42187"},{"name":"L'Atelier de Gaztelur","road":"Chemin de Gastelhur","zipcode":"64200","city":"Arcangues","address":"Chemin de Gastelhur 64200 Arcangues","chef":"Alexandre Bousquet","url":"https://restaurant.michelin.fr/t3tqba7q/latelier-de-gaztelur-arcangues","AddrOnLafourch":"https://www.lafourchette.com/restaurant/l-atelier-de-gaztelur/78423"},{"name":"Le Château de Sable","road":"38 r. de l'Europe","zipcode":"29840","city":"Porspoder","address":"38 r. de l'Europe 29840 Porspoder","chef":"","url":"https://restaurant.michelin.fr/2nnu14s6/le-chateau-de-sable-porspoder","AddrOnLafourch":"https://www.lafourchette.com/restaurant/le-chateau-de-sable/65607"},{"name":"Alan Geaam","road":"19 Rue Lauriston","zipcode":"75016","city":"Paris","address":"19 Rue Lauriston 75016 Paris","chef":"Alan Geaam","url":"https://restaurant.michelin.fr/3045466/alan-geaam-paris-16","AddrOnLafourch":"https://www.lafourchette.com/restaurant/alan-geaam-restaurant/304421"},{"name":"Mère Brazier","road":"12 rue Royale","zipcode":"69001","city":"LYON","address":"12 rue Royale 69001 LYON","chef":"Mathieu Viannay","url":"https://restaurant.michelin.fr/2et3r6g/mere-brazier-lyon","AddrOnLafourch":"https://www.lafourchette.com/restaurant/la-mere-brazier-mathieu-viannay/6794"},{"name":"Le Neuvième Art","road":"173 r. Cuvier","zipcode":"69006","city":"Lyon","address":"173 r. Cuvier 69006 Lyon","chef":"Christophe Roure","url":"https://restaurant.michelin.fr/6pz7edt2/le-neuvieme-art-lyon-06","AddrOnLafourch":"https://www.lafourchette.com/restaurant/le-neuvieme-art/324425"},{"name":"La Scène Thélème","road":"18 Rue Troyon","zipcode":"75017","city":"Paris","address":"18 Rue Troyon 75017 Paris","chef":"Julien Roucheteau","url":"https://restaurant.michelin.fr/ygx47dyb/la-scene-theleme-paris-17","AddrOnLafourch":"https://www.lafourchette.com/restaurant/la-scene-theleme/269585"},{"name":"Numéro 3","road":"3 rue du Général de Gaulle","zipcode":"78490","city":"Le Tremblay-sur-Mauldre","address":"3 rue du Général de Gaulle 78490 Le Tremblay-sur-Mauldre","chef":"Laurent Trochain","url":"https://restaurant.michelin.fr/2dnmje9/numero-3-le-tremblay-sur-mauldre","AddrOnLafourch":"https://www.lafourchette.com/restaurant/restaurant-numero-3/26601"},{"name":"Gavroche","road":"4 r. Klein","zipcode":"67000","city":"Strasbourg","address":"4 r. Klein 67000 Strasbourg","chef":"Benoit Fuchs","url":"https://restaurant.michelin.fr/2b120tk/gavroche-strasbourg","AddrOnLafourch":"https://www.lafourchette.com/restaurant/le-gavroche/acb519dd-afc8-4458-8868-ded86f3e1e58"},{"name":"Le Relais des Moines","road":"route de Ste-Roseline","zipcode":"83460","city":"Les Arcs","address":"route de Ste-Roseline 83460 Les Arcs","chef":"Sébastien Sanjou","url":"https://restaurant.michelin.fr/28qae64/le-relais-des-moines-les-arcs","AddrOnLafourch":"https://www.lafourchette.com/restaurant/le-relais-des-moines/132"},{"name":"La Villa Madie","road":"av. du Revestel","zipcode":"13260","city":"Cassis","address":"av. du Revestel 13260 Cassis","chef":"Dimitri Droisneau","url":"https://restaurant.michelin.fr/2eb50c1n/la-villa-madie-cassis","AddrOnLafourch":"https://www.lafourchette.com/restaurant/la-villa-madie-dimitri-droisneau/2788"},{"name":"Le Pavillon des Boulevards","road":"120 r. Croix-de-Seguey","zipcode":"33000","city":"Bordeaux","address":"120 r. Croix-de-Seguey 33000 Bordeaux","chef":"Thomas Morel","url":"https://restaurant.michelin.fr/28y19tl/le-pavillon-des-boulevards-bordeaux","AddrOnLafourch":"https://www.lafourchette.com/restaurant/le-pavillon-des-boulevards-denis-franc/7872"},{"name":"L'Arcane","road":"39 Rue Lamarck","zipcode":"75018","city":"Paris","address":"39 Rue Lamarck 75018 Paris","chef":"Laurent Magnin","url":"https://restaurant.michelin.fr/vx40rloc/larcane-paris-18","AddrOnLafourch":"https://www.lafourchette.com/restaurant/l-arcane/214579"},{"name":"Saturne","road":"17 r. N.-D.-des-Victoires","zipcode":"75002","city":"Paris","address":"17 r. N.-D.-des-Victoires 75002 Paris","chef":"Sven Chartier","url":"https://restaurant.michelin.fr/2fe4uol/saturne-paris-02","AddrOnLafourch":"https://www.lafourchette.com/restaurant/saturne/8760"},{"name":"Le Quincangrogne","road":"7 Rue de l'Abreuvoir","zipcode":"77400","city":"Dampmart","address":"7 Rue de l'Abreuvoir 77400 Dampmart","chef":"Franck Charpentier","url":"https://restaurant.michelin.fr/u1pjp7ux/le-quincangrogne-dampmart","AddrOnLafourch":"https://www.lafourchette.com/restaurant/le-quincangrogne/78533"},{"name":"Sur Mesure par Thierry Marx","road":"251 r. St-Honoré","zipcode":"75001","city":"Paris 01","address":"251 r. St-Honoré 75001 Paris 01","chef":"Thierry Marx","url":"https://restaurant.michelin.fr/6f226za/sur-mesure-par-thierry-marx-paris-01","AddrOnLafourch":"https://www.lafourchette.com/restaurant/sur-mesure-par-thierry-marx-mandarin-oriental-paris/53046"},{"name":"Miraflores","road":"60 r. Garibaldi","zipcode":"69006","city":"Lyon","address":"60 r. Garibaldi 69006 Lyon","chef":"Carlos Camino","url":"https://restaurant.michelin.fr/2jcivvu3/miraflores-lyon-06","AddrOnLafourch":"https://www.lafourchette.com/restaurant/miraflores/44919"},{"name":"Clovis","road":"21 Grand-Rue","zipcode":"06140","city":"Tourrettes-sur-Loup","address":"21 Grand-Rue 06140 Tourrettes-sur-Loup","chef":"Julien Bousseau","url":"https://restaurant.michelin.fr/2evgb1v/clovis-tourrettes-sur-loup","AddrOnLafourch":"https://www.lafourchette.com/restaurant/bistrot-gourmand-clovis/6655"},{"name":"Xavier Mathieu","road":"Route de Murs","zipcode":"84220","city":"Joucas","address":"Route de Murs 84220 Joucas","chef":"Mr Xavier Mathieu","url":"https://restaurant.michelin.fr/2c2u7lh/xavier-mathieu-joucas","AddrOnLafourch":"https://www.lafourchette.com/restaurant/le-phebus-xavier-mathieu/1310"},{"name":"La Closerie","road":"bd des Platanes","zipcode":"84240","city":"Ansouis","address":"bd des Platanes 84240 Ansouis","chef":"Olivier Alemany","url":"https://restaurant.michelin.fr/2eebgpo/la-closerie-ansouis","AddrOnLafourch":"https://www.lafourchette.com/restaurant/la-closerie/58bafefe-fe35-409c-8dbc-dbc5526a2a37"},{"name":"La Marande","road":"lieu-dit Mirande","zipcode":"71260","city":"Montbellet","address":"lieu-dit Mirande 71260 Montbellet","chef":"Philippe Michel","url":"https://restaurant.michelin.fr/2dcnkds/la-marande-montbellet","AddrOnLafourch":"https://www.lafourchette.com/restaurant/la-marande/2889"},{"name":"La Grange de Belle-Église","road":"28 bd René-Aimé-Lagabrielle","zipcode":"60540","city":"Belle-Église","address":"28 bd René-Aimé-Lagabrielle 60540 Belle-Église","chef":"Marc Duval","url":"https://restaurant.michelin.fr/28vem1k/la-grange-de-belle-eglise-belle-eglise","AddrOnLafourch":"https://www.lafourchette.com/restaurant/la-grange-de-belle-eglise/28557"},{"name":"Mickaël Féval","road":"11 Petite-Rue-St-Jean","zipcode":"13100","city":"Aix-en-Provence","address":"11 Petite-Rue-St-Jean 13100 Aix-en-Provence","chef":"","url":"https://restaurant.michelin.fr/sv592kt5/mickael-feval-aix-en-provence","AddrOnLafourch":"https://www.lafourchette.com/restaurant/mickael-feval/77134"},{"name":"Frédéric Simonin","road":"25 rue Bayen","zipcode":"75017","city":"Paris","address":"25 rue Bayen 75017 Paris","chef":"FREDERIC SIMONIN","url":"https://restaurant.michelin.fr/2f8857v/frederic-simonin-paris-17","AddrOnLafourch":"https://www.lafourchette.com/restaurant/frederic-simonin/23087"},{"name":"Domaine d'Auriac","road":"Route de Saint-Hilaire","zipcode":"11000","city":"Carcassonne","address":"Route de Saint-Hilaire 11000 Carcassonne","chef":"Philippe Deschamps","url":"https://restaurant.michelin.fr/2bmf006/domaine-dauriac-carcassonne","AddrOnLafourch":"https://www.lafourchette.com/restaurant/domaine-d-auriac/3018"},{"name":"Ivan Vautier","road":"3 avenue Henry-Chéron","zipcode":"14000","city":"Caen","address":"3 avenue Henry-Chéron 14000 Caen","chef":"Ivan Vautier","url":"https://restaurant.michelin.fr/290z3mh/ivan-vautier-caen","AddrOnLafourch":"https://www.lafourchette.com/restaurant/ivan-vautier/26460"},{"name":"Auberge de la Charme","road":"12 r. de la Charme","zipcode":"21370","city":"Prenois","address":"12 r. de la Charme 21370 Prenois","chef":"Nicolas Isnard et David Le Comte","url":"https://restaurant.michelin.fr/29dyqga/auberge-de-la-charme-prenois","AddrOnLafourch":"https://www.lafourchette.com/restaurant/l-auberge-de-la-charme/2579"},{"name":"Le Violon d'Ingres","road":"135 route St-Dominique","zipcode":"75007","city":"Paris","address":"135 route St-Dominique 75007 Paris","chef":"Christian Constant","url":"https://restaurant.michelin.fr/2aa5u1w/le-violon-dingres-paris-07","AddrOnLafourch":"https://www.lafourchette.com/restaurant/le-violon-d-ingres-christian-constant/205737"},{"name":"Le Village","road":"3 Grande-Rue","zipcode":"78160","city":"Marly-le-Roi","address":"3 Grande-Rue 78160 Marly-le-Roi","chef":"Tomohiro Uido","url":"https://restaurant.michelin.fr/2ahm97s/le-village-marly-le-roi","AddrOnLafourch":"https://www.lafourchette.com/restaurant/le-village/330375"},{"name":"Le Clarence","road":"31 Avenue Franklin Delano Roosevelt","zipcode":"75008","city":"Paris 08","address":"31 Avenue Franklin Delano Roosevelt 75008 Paris 08","chef":"Christophe Pelé","url":"https://restaurant.michelin.fr/sntd30zx/le-clarence-paris-08","AddrOnLafourch":"https://www.lafourchette.com/restaurant/le-clarence/74933"},{"name":"Le Fanal","road":"17 Avenue du Fontaulé","zipcode":"66650","city":"Banyuls-sur-Mer","address":"17 Avenue du Fontaulé 66650 Banyuls-sur-Mer","chef":"Pascal Borrell","url":"https://restaurant.michelin.fr/yw26sgs/le-fanal-banyuls-sur-mer","AddrOnLafourch":"https://www.lafourchette.com/restaurant/le-fanal-pascal-borrell/294745"},{"name":"La Chassagnette","road":"route du Sambuc","zipcode":"13200","city":"Arles","address":"route du Sambuc 13200 Arles","chef":"","url":"https://restaurant.michelin.fr/28qr6q2/la-chassagnette-arles","AddrOnLafourch":"https://www.lafourchette.com/restaurant/la-chassagnette/14529"},{"name":"La Nouvelle Auberge","road":"9 route Nationale","zipcode":"68230","city":"Wihr-au-Val","address":"9 route Nationale 68230 Wihr-au-Val","chef":"Bernard Leray","url":"https://restaurant.michelin.fr/2a2adlj/la-nouvelle-auberge-wihr-au-val","AddrOnLafourch":"https://www.lafourchette.com/restaurant/la-nouvelle-auberge/38024"},{"name":"Lucas Carton","road":"9 pl. de la Madeleine","zipcode":"75008","city":"Paris 08","address":"9 pl. de la Madeleine 75008 Paris 08","chef":"Julien Dumas","url":"https://restaurant.michelin.fr/2abav0l/lucas-carton-paris-08","AddrOnLafourch":"https://www.lafourchette.com/restaurant/le-marche-du-lucas-carton/203143"},{"name":"Les Bacchanales","road":"247 avenue de Provence","zipcode":"06140","city":"VENCE","address":"247 avenue de Provence 06140 VENCE","chef":"Christophe Dufau","url":"https://restaurant.michelin.fr/2en7eas/les-bacchanales-vence","AddrOnLafourch":"https://www.lafourchette.com/restaurant/les-bacchanales-christophe-dufau/6448"},{"name":"Agapé","road":"51 rue Jouffroy-d'Abbans","zipcode":"75017","city":"Paris 17","address":"51 rue Jouffroy-d'Abbans 75017 Paris 17","chef":"Yoshitaka Takayanagi","url":"https://restaurant.michelin.fr/2eo1t6h/agape-paris-17","AddrOnLafourch":"https://www.lafourchette.com/restaurant/agape/1923"},{"name":"Maison Lameloise","road":"36 pl. d'Armes","zipcode":"71150","city":"Chagny","address":"36 pl. d'Armes 71150 Chagny","chef":"Eric Pras","url":"https://restaurant.michelin.fr/2bnef6m/maison-lameloise-chagny","AddrOnLafourch":"https://www.lafourchette.com/restaurant/maison-lameloise/3552"},{"name":"Le Park 45","road":"45 bd de la Croisette","zipcode":"06400","city":"Cannes","address":"45 bd de la Croisette 06400 Cannes","chef":"","url":"https://restaurant.michelin.fr/2e74el7/le-park-45-cannes","AddrOnLafourch":"https://www.lafourchette.com/restaurant/le-park-45/8628"},{"name":"1217","road":"le bourg","zipcode":"69620","city":"Bagnols","address":"le bourg 69620 Bagnols","chef":"Jean-Alexandre OUARATTA","url":"https://restaurant.michelin.fr/2bfuk4c/1217-bagnols","AddrOnLafourch":"https://www.lafourchette.com/restaurant/le-1217/28453"},{"name":"Les Clefs d'Argent","road":"333 Avenue des Martyrs de la Résistance","zipcode":"40000","city":"Mont-de-Marsan","address":"333 Avenue des Martyrs de la Résistance 40000 Mont-de-Marsan","chef":"Christophe Dupouy","url":"https://restaurant.michelin.fr/2e0bvx8/les-clefs-dargent-mont-de-marsan","AddrOnLafourch":"https://www.lafourchette.com/restaurant/les-clefs-d-argent/8933"},{"name":"La Scène","road":"33 Avenue George V","zipcode":"75008","city":"Paris","address":"33 Avenue George V 75008 Paris","chef":"Stéphanie Le Quellec","url":"https://restaurant.michelin.fr/1ore4aj2/la-scene-paris-08","AddrOnLafourch":"https://www.lafourchette.com/restaurant/la-scene-prince-de-galles/5497"},{"name":"Le Castellaras","road":"461 chemin Peymeyan","zipcode":"83440","city":"Fayence","address":"461 chemin Peymeyan 83440 Fayence","chef":"Quentin Joplet","url":"https://restaurant.michelin.fr/29h5xkp/le-castellaras-fayence","AddrOnLafourch":"https://www.lafourchette.com/restaurant/le-castellaras/204609"},{"name":"Gill","road":"9 quai de la Bourse","zipcode":"76000","city":"Rouen","address":"9 quai de la Bourse 76000 Rouen","chef":"Gilles Tournadre","url":"https://restaurant.michelin.fr/2aqe7bm/gill-rouen","AddrOnLafourch":"https://www.lafourchette.com/restaurant/restaurant-gill-relais-chateaux/3157"},{"name":"Mavrommatis","road":"42 rue Daubenton","zipcode":"75005","city":"Paris 05","address":"42 rue Daubenton 75005 Paris 05","chef":"Andréas MAVROMMATIS","url":"https://restaurant.michelin.fr/2a95vol/mavrommatis-paris-05","AddrOnLafourch":"https://www.lafourchette.com/restaurant/mavrommatis/5727"},{"name":"Le Carrousel","road":"14 rue du Pont de Morge","zipcode":"63350","city":"MARINGUES","address":"14 rue du Pont de Morge 63350 MARINGUES","chef":"Olivier Said","url":"https://restaurant.michelin.fr/2dwt9zi/le-carrousel-maringues","AddrOnLafourch":"https://www.lafourchette.com/restaurant/le-carrousel/9759"},{"name":"Le Pavillon","road":"av. du Verger","zipcode":"62520","city":"Le Touquet-Paris-Plage","address":"av. du Verger 62520 Le Touquet-Paris-Plage","chef":"","url":"https://restaurant.michelin.fr/2b3t8kh/le-pavillon-le-touquet-paris-plage","AddrOnLafourch":"https://www.lafourchette.com/restaurant/le-pavillon/306505"},{"name":"Assa","road":"189 Quai Ulysse Besnard","zipcode":"41000","city":"Blois","address":"189 Quai Ulysse Besnard 41000 Blois","chef":"Fumiko et Anthony Maubert","url":"https://restaurant.michelin.fr/3m0pjn8/assa-blois","AddrOnLafourch":"https://www.lafourchette.com/restaurant/assa/79692"},{"name":"Julien Binz","road":"7 Rue des Cigognes","zipcode":"68770","city":"Ammerschwihr","address":"7 Rue des Cigognes 68770 Ammerschwihr","chef":"Le Chef Julien Binz","url":"https://restaurant.michelin.fr/yi79hbnh/julien-binz-ammerschwihr","AddrOnLafourch":"https://www.lafourchette.com/restaurant/julien-binz/206163"},{"name":"Faventia","road":"3100 route de Bagnols-en-Forêt","zipcode":"83440","city":"Tourrettes","address":"3100 route de Bagnols-en-Forêt 83440 Tourrettes","chef":"Philippe Jourdin","url":"https://restaurant.michelin.fr/2dix4nq137/faventia-tourrettes","AddrOnLafourch":"https://www.lafourchette.com/restaurant/le-faventia/324473"},{"name":"Auberge du Bon Laboureur","road":"6 r. Dr Bretonneau","zipcode":"37150","city":"Chenonceaux","address":"6 r. Dr Bretonneau 37150 Chenonceaux","chef":"Antoine Jeudi","url":"https://restaurant.michelin.fr/2bpwyme/auberge-du-bon-laboureur-chenonceaux","AddrOnLafourch":"https://www.lafourchette.com/restaurant/auberge-du-bon-laboureur/2934"},{"name":"Le Saint-Estève","road":"2250 route cézanne D17","zipcode":"13100","city":"Le Tholonet","address":"2250 route cézanne D17 13100 Le Tholonet","chef":"Mathias Dandine","url":"https://restaurant.michelin.fr/2x1lce26/le-saint-esteve-le-tholonet","AddrOnLafourch":"https://www.lafourchette.com/restaurant/le-saint-esteve/bd446e9d-3bed-4c3c-ae86-ee1a9e393e8c"},{"name":"Les Morainières","road":"route de Marétel","zipcode":"73170","city":"Jongieux","address":"route de Marétel 73170 Jongieux","chef":"Michaël Arnoult","url":"https://restaurant.michelin.fr/2dd2ann/les-morainieres-jongieux","AddrOnLafourch":"https://www.lafourchette.com/restaurant/auberge-les-morainieres/10427"},{"name":"Les Fresques","road":"13 Avenue des Mateirons","zipcode":"74500","city":"Évian-les-Bains","address":"13 Avenue des Mateirons 74500 Évian-les-Bains","chef":"Patrice Vander","url":"https://restaurant.michelin.fr/29gdnxp256n/les-fresques-evian-les-bains","AddrOnLafourch":"https://www.lafourchette.com/restaurant/les-fresques/ee96ccf7-c227-4107-92d6-d2c306762c73"},{"name":"Auberge au Boeuf","road":"Rue de l'Eglise","zipcode":"67770","city":"Sessenheim","address":"Rue de l'Eglise 67770 Sessenheim","chef":"Yannick Germain","url":"https://restaurant.michelin.fr/2b00ufd/auberge-au-boeuf-sessenheim","AddrOnLafourch":"https://www.lafourchette.com/restaurant/auberge-au-boeuf/44361"},{"name":"La Dame de Pic","road":"20 Rue du Louvre","zipcode":"75001","city":"Paris 01","address":"20 Rue du Louvre 75001 Paris 01","chef":"Anne-Sophie Pic","url":"https://restaurant.michelin.fr/jgnpf8y/la-dame-de-pic-paris-01","AddrOnLafourch":"https://www.lafourchette.com/restaurant/la-dame-de-pic-anne-sophie-pic-paris/205419"},{"name":"La Palme d'Or","road":"73 Boulevard de la Croisette","zipcode":"06400","city":"Cannes","address":"73 Boulevard de la Croisette 06400 Cannes","chef":"Christian Sinicropi","url":"https://restaurant.michelin.fr/292bk5u/la-palme-dor-cannes","AddrOnLafourch":"https://www.lafourchette.com/restaurant/la-palme-d-or/287357"},{"name":"La Licorne Royale","road":"27 Place Isaac Benserade","zipcode":"27480","city":"Lyons-la-Forêt","address":"27 Place Isaac Benserade 27480 Lyons-la-Forêt","chef":"Christophe POIRIER","url":"https://restaurant.michelin.fr/2ehwc2a/la-licorne-royale-lyons-la-foret","AddrOnLafourch":"https://www.lafourchette.com/restaurant/la-licorne-royale/5632"},{"name":"L'Almandin","road":"Boulevard de l'Almandin","zipcode":"66750","city":"Saint-Cyprien","address":"Boulevard de l'Almandin 66750 Saint-Cyprien","chef":"Christophe Schmitt","url":"https://restaurant.michelin.fr/2as8r3a/lalmandin-saint-cyprien-plage","AddrOnLafourch":"https://www.lafourchette.com/restaurant/l-almandin/566"},{"name":"Pierre Orsi","road":"Place Kléber","zipcode":"69006","city":"Lyon 06","address":"Place Kléber 69006 Lyon 06","chef":"Pierre Orsi","url":"https://restaurant.michelin.fr/29te7ik/pierre-orsi-lyon-06","AddrOnLafourch":"https://www.lafourchette.com/restaurant/pierre-orsi/12900"},{"name":"Le Magasin aux Vivres","road":"5 Avenue Ney","zipcode":"57000","city":"Metz","address":"5 Avenue Ney 57000 Metz","chef":"Christophe Dufossé","url":"https://restaurant.michelin.fr/2dse7wh/le-magasin-aux-vivres-metz","AddrOnLafourch":"https://www.lafourchette.com/restaurant/le-magasin-aux-vivres/5109"},{"name":"Château de Mercuès","road":"Route du Château","zipcode":"46090","city":"Mercuès","address":"Route du Château 46090 Mercuès","chef":"Julien Poisot","url":"https://restaurant.michelin.fr/2blc3qr/chateau-de-mercues-mercues","AddrOnLafourch":"https://www.lafourchette.com/restaurant/chateau-de-mercues/13311"},{"name":"Alain Llorca","road":"350 Route de St-Paul","zipcode":"06480","city":"La Colle-sur-Loup","address":"350 Route de St-Paul 06480 La Colle-sur-Loup","chef":"LLORCA ALAIN","url":"https://restaurant.michelin.fr/2e4vi29/alain-llorca-la-colle-sur-loup","AddrOnLafourch":"https://www.lafourchette.com/restaurant/alain-llorca/277471"},{"name":"La Barbacane","road":"Place Auguste-Pierre-Pont","zipcode":"11000","city":"Carcassonne","address":"Place Auguste-Pierre-Pont 11000 Carcassonne","chef":"RYON Jérôme","url":"https://restaurant.michelin.fr/292xja3/la-barbacane-carcassonne","AddrOnLafourch":"https://www.lafourchette.com/restaurant/restaurant-la-barbacane/26494"},{"name":"Le Gabriel","road":"42 Avenue Gabriel","zipcode":"75008","city":"Paris","address":"42 Avenue Gabriel 75008 Paris","chef":"Jérôme Banctel","url":"https://restaurant.michelin.fr/9sqrw32m/le-gabriel-paris-08","AddrOnLafourch":"https://www.lafourchette.com/restaurant/le-gabriel-la-reserve-paris/53038"},{"name":"L'Auberge de la Pomme","road":"44 rue de l' eure","zipcode":"27340","city":"Les Damps","address":"44 rue de l' eure 27340 Les Damps","chef":"William Boquelet","url":"https://restaurant.michelin.fr/2al6a9i/lauberge-de-la-pomme-les-damps","AddrOnLafourch":"https://www.lafourchette.com/restaurant/l-auberge-de-la-pomme/32584"},{"name":"Le Pressoir","road":"7 r. de l'Hôpital","zipcode":"56890","city":"Saint-Avé","address":"7 r. de l'Hôpital 56890 Saint-Avé","chef":"Vincent David","url":"https://restaurant.michelin.fr/2b6sa1u/le-pressoir-saint-ave","AddrOnLafourch":"https://www.lafourchette.com/restaurant/le-pressoir/18188"},{"name":"Domaine de Clairefontaine","road":"chemin des Fontanettes","zipcode":"38121","city":"Chonas-l'Amballan","address":"chemin des Fontanettes 38121 Chonas-l'Amballan","chef":"Philippe Girardon","url":"https://restaurant.michelin.fr/2b8j4np/domaine-de-clairefontaine-chonas-lamballan","AddrOnLafourch":"https://www.lafourchette.com/restaurant/domaine-de-clairefontaine/22878"},{"name":"Anne de Bretagne","road":"163, Boulevard de la Tara","zipcode":"44770","city":"La Plaine-sur-Mer","address":"163, Boulevard de la Tara 44770 La Plaine-sur-Mer","chef":"Mathieu Guibert","url":"https://restaurant.michelin.fr/2ciults/anne-de-bretagne-la-plaine-sur-mer","AddrOnLafourch":"https://www.lafourchette.com/restaurant/hotel-restaurant-anne-de-bretagne/35732"},{"name":"Au Trou Gascon","road":"40 r. Taine","zipcode":"75012","city":"Paris 12","address":"40 r. Taine 75012 Paris 12","chef":"Clément THOUVENOT","url":"https://restaurant.michelin.fr/2acpe43/au-trou-gascon-paris-12","AddrOnLafourch":"https://www.lafourchette.com/restaurant/au-trou-gascon-alain-dutournier/69375"},{"name":"Alexandre","road":"2 rue Xavier Tronc","zipcode":"30128","city":"Garons","address":"2 rue Xavier Tronc 30128 Garons","chef":"Michel Kayser","url":"https://restaurant.michelin.fr/2a57m2j/alexandre-garons","AddrOnLafourch":"https://www.lafourchette.com/restaurant/alexandre-michel-kayser/6986"},{"name":"Le Moulin de l'Abbaye","road":"1 avenue Pierre de Bourdeilles","zipcode":"24310","city":"BRANTOME","address":"1 avenue Pierre de Bourdeilles 24310 BRANTOME","chef":"LECOIN LOIC","url":"https://restaurant.michelin.fr/2bk4rlv/le-moulin-de-labbaye-brantome-en-perigord","AddrOnLafourch":"https://www.lafourchette.com/restaurant/le-moulin-de-l-abbaye/26352"},{"name":"Le Passe Temps","road":"52 Rue Tronchet","zipcode":"69006","city":"Lyon","address":"52 Rue Tronchet 69006 Lyon","chef":"Younghoon Lee","url":"https://restaurant.michelin.fr/44ahwpa/le-passe-temps-lyon-06","AddrOnLafourch":"https://www.lafourchette.com/restaurant/le-passe-temps/323145"},{"name":"Auberge de la Tour","road":"Place de la Fontaine","zipcode":"15220","city":"MARCOLES","address":"Place de la Fontaine 15220 MARCOLES","chef":"Renaud Darmanin","url":"https://restaurant.michelin.fr/aewyhv0/auberge-de-la-tour-marcoles","AddrOnLafourch":"https://www.lafourchette.com/restaurant/auberge-de-la-tour/23255"},{"name":"Le Saint-James","road":"3 pl. Camille-Hostein","zipcode":"33270","city":"BOULIAC","address":"3 pl. Camille-Hostein 33270 BOULIAC","chef":"Nicolas Magie","url":"https://restaurant.michelin.fr/2bj8gr9/le-saint-james-bouliac","AddrOnLafourch":"https://www.lafourchette.com/restaurant/le-saint-james-nicolas-magie/4977"},{"name":"Shang Palace","road":"10 Avenue d'Iéna","zipcode":"75016","city":"Paris 16","address":"10 Avenue d'Iéna 75016 Paris 16","chef":"Samuel Lee","url":"https://restaurant.michelin.fr/2fcezsf205/shang-palace-paris-16","AddrOnLafourch":"https://www.lafourchette.com/restaurant/shang-palace-shangri-la-hotel-paris/8977"},{"name":"Le Baudelaire","road":"6-8 rue Duphot","zipcode":"75001","city":"Paris 01","address":"6-8 rue Duphot 75001 Paris 01","chef":"Guillaume Goupil","url":"https://restaurant.michelin.fr/2fdc0eg/le-baudelaire-paris-01","AddrOnLafourch":"https://www.lafourchette.com/restaurant/le-baudelaire-hotel-le-burgundy-paris/9228"},{"name":"La Table du Connétable","road":"4 Rue du Connétable","zipcode":"60500","city":"Chantilly","address":"4 Rue du Connétable 60500 Chantilly","chef":"Julien Lucas","url":"https://restaurant.michelin.fr/jgutdlg/la-table-du-connetable-chantilly","AddrOnLafourch":"https://www.lafourchette.com/restaurant/la-table-du-connetable/60775"},{"name":"Radio","road":"43 av. P. et M.-Curie","zipcode":"63400","city":"Chamalières","address":"43 av. P. et M.-Curie 63400 Chamalières","chef":"Wilfrid CHAPLAIN ","url":"https://restaurant.michelin.fr/2bqajf6/radio-chamalieres","AddrOnLafourch":"https://www.lafourchette.com/restaurant/le-radio/9611"},{"name":"Paloma","road":"47 Avenue du Moulin de la Croix","zipcode":"06250","city":"Mougins","address":"47 Avenue du Moulin de la Croix 06250 Mougins","chef":"Nicolas DECHERCHI","url":"https://restaurant.michelin.fr/280mq6yn/paloma-mougins","AddrOnLafourch":"https://www.lafourchette.com/restaurant/paloma/38822"},{"name":"L'Axel","road":"43 r. de France","zipcode":"77300","city":"Fontainebleau","address":"43 r. de France 77300 Fontainebleau","chef":"Kunihisa Goto","url":"https://restaurant.michelin.fr/29i66ux/laxel-fontainebleau","AddrOnLafourch":"https://www.lafourchette.com/restaurant/l-axel/2dd761c8-cfdc-49c0-b5ff-d5071d5813e9"}]}